#aV2008  9  3  0  0   .00000000      96 DD+AD WGS84 FIT  NGA
## 1495 259200.00000000   900.00000000 54712  .0000000000000
+   31     2  3  4  5  6  7  8  9 10 11 12 13 14 15 16 17 18
+         19 20 21 22 23 24 25 26 27 28 29 30 31 32  0  0  0
+          0  0  0  0  0  0  0  0  0  0  0  0  0  0  0  0  0
+          0  0  0  0  0  0  0  0  0  0  0  0  0  0  0  0  0
+          0  0  0  0  0  0  0  0  0  0  0  0  0  0  0  0  0
++         0  0  0  0  0  0  0  0  0  0  0  0  0  0  0  0  0
++         0  0  0  0  0  0  0  0  0  0  0  0  0  0  0  0  0
++         0  0  0  0  0  0  0  0  0  0  0  0  0  0  0  0  0
++         0  0  0  0  0  0  0  0  0  0  0  0  0  0  0  0  0
++         0  0  0  0  0  0  0  0  0  0  0  0  0  0  0  0  0
%c cc cc ccc ccc cccc cccc cccc cccc ccccc ccccc ccccc ccccc
%c cc cc ccc ccc cccc cccc cccc cccc ccccc ccccc ccccc ccccc
%f  0.0000000  0.000000000  0.00000000000  0.000000000000000
%f  0.0000000  0.000000000  0.00000000000  0.000000000000000
%i    0    0    0    0      0      0      0      0         0
%i    0    0    0    0      0      0      0      0         0
/*      NGA, ST. LOUIS,MO.                                  
/*   EPHEMERIS COMPUTED FROM  3 DAYS OF DATA                
/* CCCCCCCCCCCCCCCCCCCCCCCCCCCCCCCCCCCCCCCCCCCCCCCCCCCCCCCCC
/* CCCCCCCCCCCCCCCCCCCCCCCCCCCCCCCCCCCCCCCCCCCCCCCCCCCCCCCCC
*  2008  9  3 14 45   .00000000                                                 
P  2   2672.281945  17223.556644  19998.581826    190.130805                    
V  2 -23759.283232  -9769.138623  11142.346787      -.028098                    
P  3   3614.362662 -20089.955307 -17082.050468    278.497330                    
V  3  17820.478480 -12137.563345  18700.909118       .051165                    
P  4 -11778.517373  11225.442206  20940.921407   -160.785346                    
V  4 -23918.519539 -12198.713995  -6515.046960      -.107906                    
P  5  14696.070130  14497.930642  16494.975673    169.316786                    
V  5   1608.420913  21540.623027 -19882.325769     -2.260799                    
P  6   9453.151353 -20265.364161 -14145.493265    167.404282                    
V  6  16321.744567  -8845.493211  23262.556035      -.005836                    
P  7 -24827.453005  -5962.969340  -7520.231436     14.432675                    
V  7  -7508.246133  -6303.397908  29809.531640       .030366                    
P  8 -19752.745379   2783.449592 -17860.987407   -168.444108                    
V  8 -19145.151819 -11424.313138  19003.463275      -.016144                    
P  9  20303.259926  15203.806042  -8733.324832     13.144928                    
V  9 -10123.907410  -2153.130712 -29343.943813       .018537                    
P 10    806.580037  26345.370938    962.922475     -4.491198                    
V 10  -3140.804723  -1224.572059  31966.726420      -.003701                    
P 11 -22918.740248 -11786.624239  -7266.337245     20.513791                    
V 11   9838.417297  -2040.811260 -28018.929832      -.006600                    
P 12  11182.886445  19829.536475  13838.764717   -352.363164                    
V 12   -633.026014  17501.479284 -24606.337728       .014000                    
P 13 -22297.519097   3198.050674  13949.159251    269.894280                    
V 13  14455.042628 -10573.839738  25319.999603       .012836                    
P 14  21084.169891 -15819.187809   2821.867426   -224.290434                    
V 14   3972.136337   -212.203794 -32190.517920       .046465                    
P 15   5052.234177  14869.768260 -21393.317847   -171.048362                    
V 15 -22498.885428  15357.105200   5368.278653      -.064831                    
P 16   3214.895187 -25344.200300   6914.853378    108.894726                    
V 16   3210.062012   8564.492460  30363.192472      -.019641                    
P 17 -20921.666971  16043.189443   2354.792085     38.883488                    
V 17  -4109.960457   -821.779625 -31664.517144       .000570                    
P 18  15427.053415   -596.115541 -21411.948973   -137.901277                    
V 18   1450.201841  27681.628230    -95.008564       .041384                    
P 19  -5606.750960 -14311.574818 -21570.481194     35.215142                    
V 19  23934.587451 -13747.059802   3091.593542       .002573                    
P 20 -13098.067408 -16851.919590  15718.440714    105.664841                    
V 20    229.156802 -20316.869609 -21401.893891      -.010534                    
P 21  23947.881368   2386.991534 -11678.277789     52.028214                    
V 21  12207.028618   9076.852722  25798.515230      -.014457                    
P 22  12165.463750 -15478.273514 -17637.556022    211.084253                    
V 22   2904.158952  22696.696988 -17813.991171       .000939                    
P 23 -16327.922965  -5545.321153  20215.776186    371.694718                    
V 23  20716.678021 -15225.029759  12257.799843       .015494                    
P 24  22935.582550  13069.196628    926.416668    122.303707                    
V 24  -2453.575642   2465.967722  31710.364885       .032076                    
P 25 -24771.138996  -9308.327294    484.712259   -219.797845                    
V 25   1135.060537  -2575.541139  31980.108030       .546220                    
P 26   -129.719774  16390.481105 -21264.932939    320.069934                    
V 26 -22392.940813  13070.568472  10972.704461       .058090                    
P 27 -24582.305762  -3227.084180  -9010.872782    214.933473                    
V 27 -10587.705710  -6791.208492  29028.233482       .027993                    
P 28 -12161.449467  13886.251050 -18577.898497    -22.249259                    
V 28  -2963.931404 -24396.469607 -16289.003888      -.002603                    
P 29  21078.096846   -289.324723  16249.564596    -38.477544                    
V 29 -16021.761326  12832.518547  21189.877771       .008673                    
P 30  15491.324075   5289.535281  20578.346163     94.679606                    
V 30   2412.855313  26872.548357  -8485.041894       .020470                    
P 31   7787.559276 -13035.250313  21997.335557    -25.091904                    
V 31  24784.387242  11721.474592  -1742.951021      -.000382                    
P 32  -7864.960466 -22911.338831  11539.972771    315.483459                    
V 32   2021.054133 -13910.418613 -27087.613149       .009649                    
EOF
